NORAD_CAT_ID,OBJECT_NAME,OBJECT_TYPE,EPOCH,MEAN_MOTION,ECCENTRICITY,INCLINATION,RA_OF_ASC_NODE,ARG_OF_PERICENTER,MEAN_ANOMALY,BSTAR,MEAN_MOTION_DOT,MEAN_MOTION_DDOT,TLE_LINE0,TLE_LINE1,TLE_LINE2,SEMIMAJOR_AXIS,PERIOD,APOGEE,PERIGEE,DECAYED
52301.0,STARLINK-3768,PAYLOAD,2023-01-19 18:47:00,15.08836418,0.0002105,53.2148,198.818,55.0932,305.0258,7.4765e-05,9.02e-06,0.0,0 STARLINK-3768,1 52301U 22041AS  23019.78264863  .00000902  00000-0  74765-4 0  9993,2 52301  53.2148 198.8180 0002105  55.0932 305.0258 15.08836418 42871,6917.891,95.438,541.2130000000001,538.3,0.0
52301.0,STARLINK-3768,PAYLOAD,2023-01-19 20:22:23,15.08852703,0.0002104,53.2151,198.5227,56.6933,303.4261,0.0001327,1.825e-05,0.0,0 STARLINK-3768,1 52301U 22041AS  23019.84887836  .00001825  00000-0  13270-3 0  9999,2 52301  53.2151 198.5227 0002104  56.6933 303.4261 15.08852703 42883,6917.842,95.437,541.1619999999999,538.251,0.0
52301.0,STARLINK-3768,PAYLOAD,2023-01-20 12:16:13,15.08854213,0.0002088,53.2159,195.5481,57.9606,302.1588,0.00012921,1.77e-05,0.0,0 STARLINK-3768,1 52301U 22041AS  23020.51127281  .00001770  00000-0  12921-3 0  9997,2 52301  53.2159 195.5481 0002088  57.9606 302.1588 15.08854213 41775,6917.837,95.437,541.146,538.258,0.0
52301.0,STARLINK-3768,PAYLOAD,2023-01-20 20:13:08,15.08862953,0.0002279999999999,53.2155,194.0619,58.5806,301.5409,0.00016931,2.409e-05,0.0,0 STARLINK-3768,1 52301U 22041AS  23020.84246367  .00002409  00000-0  16931-3 0  9995,2 52301  53.2155 194.0619 0002280  58.5806 301.5409 15.08862953 43037,6917.81,95.436,541.252,538.0980000000001,0.0
52301.0,STARLINK-3768,PAYLOAD,2023-01-21 10:31:39,15.08832578,0.0002431,53.2136,191.387,72.8945,287.2314,3.107e-05,2.06e-06,0.0,0 STARLINK-3768,1 52301U 22041AS  23021.43864709  .00000206  00000-0  31070-4 0  9992,2 52301  53.2136 191.3870 0002431  72.8945 287.2314 15.08832578 43121,6917.903,95.438,541.45,538.086,0.0
52301.0,STARLINK-3768,PAYLOAD,2023-01-21 16:53:12,15.08823309,0.0002056999999999,53.2175,190.199,76.9686,283.1536,-6.7674e-05,-1.365e-05,0.0,0 STARLINK-3768,1 52301U 22041AS  23021.70361666 -.00001365  00000-0 -67674-4 0  9994,2 52301  53.2175 190.1990 0002057  76.9686 283.1536 15.08823309 43162,6917.931,95.439,541.219,538.373,0.0
52301.0,STARLINK-3768,PAYLOAD,2023-01-22 10:22:26,15.08842096,0.00022,53.2167,186.9256,67.7993,292.3233,-0.00011168,-2.065e-05,0.0,0 STARLINK-3768,1 52301U 22041AS  23022.43224815 -.00002065  00000-0 -11168-3 0  9993,2 52301  53.2167 186.9256 0002200  67.7993 292.3233 15.08842096 43272,6917.874,95.437,541.261,538.217,0.0
52301.0,STARLINK-3768,PAYLOAD,2023-01-23 03:51:40,15.08853365,0.0002037,53.2169,183.6552,66.0381,294.0824,-0.00016657,-2.939e-05,0.0,0 STARLINK-3768,1 52301U 22041AS  23023.16088025 -.00002939  00000-0 -16657-3 0  9993,2 52301  53.2169 183.6552 0002037  66.0381 294.0824 15.08853365 43386,6917.84,95.437,541.114,538.295,0.0
52301.0,STARLINK-3768,PAYLOAD,2023-01-23 18:10:09,15.08834853,0.0001984,53.2157,180.9784,69.1954,290.9251,0.00023449,3.445e-05,0.0,0 STARLINK-3768,1 52301U 22041AS  23023.75705212  .00003445  00000-0  23449-3 0  9990,2 52301  53.2157 180.9784 0001984  69.1954 290.9251 15.08834853 43470,6917.896,95.438,541.134,538.389,0.0
52301.0,STARLINK-3768,PAYLOAD,2023-01-25 03:33:15,15.08839126,0.0001849,53.2157,174.7318,76.1063,284.0134,0.00010582,1.396e-05,0.0,0 STARLINK-3768,1 52301U 22041AS  23025.14809271  .00001396  00000-0  10582-3 0  9992,2 52301  53.2157 174.7318 0001849  76.1063 284.0134 15.08839126 43688,6917.883000000001,95.438,541.0269999999999,538.469,0.0
52301.0,STARLINK-3768,PAYLOAD,2023-01-25 13:05:34,15.08833189,0.0001719,53.2152,172.94799999999998,76.2531,283.8652,6.3488e-05,7.22e-06,0.0,0 STARLINK-3768,1 52301U 22041AS  23025.54553668  .00000722  00000-0  63488-4 0  9998,2 52301  53.2152 172.9480 0001719  76.2531 283.8652 15.08833189 42538,6917.901,95.438,540.955,538.577,0.0
52301.0,STARLINK-3768,PAYLOAD,2023-01-25 19:27:06,15.08842194,0.0001776999999999,53.216,171.7569,89.85,270.2695,3.6988e-05,3.01e-06,0.0,0 STARLINK-3768,1 52301U 22041AS  23025.81049197  .00000301  00000-0  36988-4 0  9993,2 52301  53.2160 171.7569 0001777  89.8500 270.2695 15.08842194 42579,6917.874,95.437,540.9680000000001,538.509,0.0
52301.0,STARLINK-3768,PAYLOAD,2023-01-26 14:31:44,15.08840766,0.0001683,53.2169,168.1884,84.5822,275.5362,8.8825e-05,1.126e-05,0.0,0 STARLINK-3768,1 52301U 22041AS  23026.60537308  .00001126  00000-0  88825-4 0  9990,2 52301  53.2169 168.1884 0001683  84.5822 275.5362 15.08840766 43903,6917.878000000001,95.438,540.9069999999999,538.5790000000001,0.0
52301.0,STARLINK-3768,PAYLOAD,2023-01-27 14:22:31,15.08835516,0.0001621999999999,53.2158,163.73,88.9101,271.2077,8.5214e-05,1.068e-05,0.0,0 STARLINK-3768,1 52301U 22041AS  23027.59897803  .00001068  00000-0  85214-4 0  9992,2 52301  53.2158 163.7300 0001622  88.9101 271.2077 15.08835516 44056,6917.894,95.438,540.881,538.637,0.0
52301.0,STARLINK-3768,PAYLOAD,2023-01-27 17:33:17,15.08841761,0.0001529,53.216,163.1338,83.4786,276.638,5.9348e-05,6.57e-06,0.0,0 STARLINK-3768,1 52301U 22041AS  23027.73145524  .00000657  00000-0  59348-4 0  9996,2 52301  53.2160 163.1338 0001529  83.4786 276.6380 15.08841761 42861,6917.875,95.437,540.798,538.682,0.0
52301.0,STARLINK-3768,PAYLOAD,2023-01-28 12:37:55,15.08837951,0.0001545,53.2154,159.5679,88.919,271.1979,4.6804e-05,4.57e-06,0.0,0 STARLINK-3768,1 52301U 22041AS  23028.52633886  .00000457  00000-0  46804-4 0  9998,2 52301  53.2154 159.5679 0001545  88.9190 271.1979 15.08837951 42981,6917.887,95.438,540.82,538.683,0.0
52301.0,STARLINK-3768,PAYLOAD,2023-01-28 17:24:04,15.08844896,0.0001539,53.216,158.6763,90.6583,269.4585,0.00010031,1.309e-05,0.0,0 STARLINK-3768,1 52301U 22041AS  23028.72505276  .00001309  00000-0  10031-3 0  9990,2 52301  53.2160 158.6763 0001539  90.6583 269.4585 15.08844896 44229,6917.865,95.437,540.795,538.666,0.0
52301.0,STARLINK-3768,PAYLOAD,2023-01-29 01:21:00,15.08835122,0.0001389,53.2164,157.1871,84.5714,275.5437,5.5932e-05,6.02e-06,0.0,0 STARLINK-3768,1 52301U 22041AS  23029.05626032  .00000602  00000-0  55932-4 0  9996,2 52301  53.2164 157.1871 0001389  84.5714 275.5437 15.08835122 44279,6917.895,95.438,540.721,538.799,0.0
52301.0,STARLINK-3768,PAYLOAD,2023-01-29 07:42:33,15.08868217,0.0001823,53.2155,155.9988,99.1809,260.939,-0.0004324,-7.169e-05,0.0,0 STARLINK-3768,1 52301U 22041AS  23029.32121983 -.00007169  00000-0 -43240-3 0  9996,2 52301  53.2155 155.9988 0001823  99.1809 260.9390 15.08868217 44316,6917.794,95.436,540.92,538.398,0.0
52301.0,STARLINK-3768,PAYLOAD,2023-01-29 17:14:51,15.08848652,0.0001722,53.2164,154.2151,99.3189,260.7998,-6.9649e-05,-1.397e-05,0.0,0 STARLINK-3768,1 52301U 22041AS  23029.71865709 -.00001397  00000-0 -69649-4 0  9999,2 52301  53.2164 154.2151 0001722  99.3189 260.7998 15.08848652 44370,6917.854,95.437,540.91,538.528,0.0
52301.0,STARLINK-3768,PAYLOAD,2023-01-30 01:11:48,15.0883855,0.0001548,53.2169,152.7273,101.7287,258.3879,-1.9556e-05,-5.99e-06,0.0,0 STARLINK-3768,1 52301U 22041AS  23030.04986247 -.00000599  00000-0 -19556-4 0  9993,2 52301  53.2169 152.7273 0001548 101.7287 258.3879 15.08838550 44429,6917.885,95.438,540.821,538.679,0.0
52301.0,STARLINK-3768,PAYLOAD,2023-01-30 12:19:30,15.08835583,0.0001507,53.2165,150.6456,90.097,270.0194,9.1519e-05,1.169e-05,0.0,0 STARLINK-3768,1 52301U 22041AS  23030.51354341  .00001169  00000-0  91519-4 0  9990,2 52301  53.2165 150.6456 0001507  90.0970 270.0194 15.08835583 43286,6917.894,95.438,540.801,538.716,0.0
52301.0,STARLINK-3768,PAYLOAD,2023-01-30 15:30:16,15.08840251,0.000149,53.2164,150.0497,91.6296,268.4867,1.7208e-05,-1.4e-07,0.0,0 STARLINK-3768,1 52301U 22041AS  23030.64602245 -.00000014  00000-0  17208-4 0  9995,2 52301  53.2164 150.0497 0001490  91.6296 268.4867 15.08840251 43302,6917.88,95.438,540.775,538.714,0.0
52301.0,STARLINK-3768,PAYLOAD,2023-01-31 12:10:17,15.08840303,0.0001598,53.2151,146.1858,87.756,272.3615,0.00010827,1.436e-05,0.0,0 STARLINK-3768,1 52301U 22041AS  23031.50714175  .00001436  00000-0  10827-3 0  9994,2 52301  53.2151 146.1858 0001598  87.7560 272.3615 15.08840303 44645,6917.879,95.438,540.85,538.639,0.0
52301.0,STARLINK-3768,PAYLOAD,2023-01-31 15:21:03,15.08842286,0.0001521,53.2153,145.5905,93.0801,267.0365,9.1492e-05,1.168e-05,0.0,0 STARLINK-3768,1 52301U 22041AS  23031.63962066  .00001168  00000-0  91492-4 0  9992,2 52301  53.2153 145.5905 0001521  93.0801 267.0365 15.08842286 43450,6917.873,95.437,540.791,538.686,0.0
52301.0,STARLINK-3768,PAYLOAD,2023-02-01 12:01:04,15.08839882,0.000146,53.215,141.7269,84.5835,275.5324,8.3178e-05,1.036e-05,0.0,0 STARLINK-3768,1 52301U 22041AS  23032.50074223  .00001036  00000-0  83178-4 0  9994,2 52301  53.2150 141.7269 0001460  84.5835 275.5324 15.08839882 43583,6917.881,95.438,540.756,538.736,0.0
52301.0,STARLINK-3768,PAYLOAD,2023-02-01 15:11:50,15.08843933,0.0001459,53.2145,141.1318,91.2257,268.8902,5.3021e-05,5.56e-06,0.0,0 STARLINK-3768,1 52301U 22041AS  23032.63322021  .00000556  00000-0  53021-4 0  9990,2 52301  53.2145 141.1318 0001459  91.2257 268.8902 15.08843933 44813,6917.868,95.437,540.743,538.724,0.0
52301.0,STARLINK-3768,PAYLOAD,2023-02-02 13:27:14,15.08843024,0.0001366,53.2152,136.967,105.4347,254.6796,1.3684e-05,-7e-07,0.0,0 STARLINK-3768,1 52301U 22041AS  23033.56058060 -.00000070  00000-0  13684-4 0  9995,2 52301  53.2152 136.9670 0001366 105.4347 254.6796 15.08843024 43745,6917.871,95.437,540.681,538.791,0.0
52301.0,STARLINK-3768,PAYLOAD,2023-02-03 06:56:29,15.08830907,0.0001429,53.2159,133.695,115.8039,244.3101,-3.1357e-06,-3.38e-06,0.0,0 STARLINK-3768,1 52301U 22041AS  23034.28922938 -.00000338  00000-0 -31357-5 0  9995,2 52301  53.2159 133.6950 0001429 115.8039 244.3101 15.08830907 45069,6917.908,95.438,540.762,538.785,0.0
